[{"OBJECT_NAME":"STARLINK-34805","OBJECT_ID":"2025-165R","EPOCH":"2026-03-09T17:29:29.820768","MEAN_MOTION":15.05650108,"ECCENTRICITY":7.037e-5,"INCLINATION":97.6032,"RA_OF_ASC_NODE":147.2278,"ARG_OF_PERICENTER":127.4817,"MEAN_ANOMALY":232.6474,"EPHEMERIS_TYPE":0,"CLASSIFICATION_TYPE":"U","NORAD_CAT_ID":65071,"ELEMENT_SET_NO":999,"REV_AT_EPOCH":3479,"BSTAR":6.8802336e-5,"MEAN_MOTION_DOT":9.32e-6,"MEAN_MOTION_DDOT":0},{"OBJECT_NAME":"CZ-4B DEB","OBJECT_ID":"2004-035N","EPOCH":"2026-03-08T07:19:22.074240","MEAN_MOTION":15.17712882,"ECCENTRICITY":0.00700404,"INCLINATION":97.867,"RA_OF_ASC_NODE":11.9774,"ARG_OF_PERICENTER":119.6038,"MEAN_ANOMALY":241.2197,"EPHEMERIS_TYPE":0,"CLASSIFICATION_TYPE":"U","NORAD_CAT_ID":35270,"ELEMENT_SET_NO":999,"REV_AT_EPOCH":13623,"BSTAR":0.0033008842,"MEAN_MOTION_DOT":0.00071474,"MEAN_MOTION_DDOT":0}]
